{
  "type": "FeatureCollection",
  "features": [
    {
      "type": "Feature",
      "properties": {
        "norad_id": 37415,
        "name": "FENGYUN 1C DEB",
        "group": "fengyun-1c-debris",
        "lat": -40.08743907294953,
        "lon": 101.84515220849372,
        "alt_km": 1220.7796431935185,
        "timestamp": "2025-12-12T07:43:20.803222+00:00",
        "meta_object_name": "FENGYUN 1C DEB",
        "meta_object_id": "1999-025EGH",
        "meta_epoch": "2025-12-08T13:21:24.699168",
        "meta_mean_motion": 13.52085555,
        "meta_eccentricity": 0.0285076,
        "meta_inclination": 98.9817,
        "meta_ra_of_asc_node": 90.7824,
        "meta_arg_of_pericenter": 192.9583,
        "meta_mean_anomaly": 166.412,
        "meta_ephemeris_type": 0,
        "meta_classification_type": "U",
        "meta_norad_cat_id": 37415,
        "meta_element_set_no": 999,
        "meta_rev_at_epoch": 62265,
        "meta_bstar": 0.00090162,
        "meta_mean_motion_dot": 7.27e-06,
        "meta_mean_motion_ddot": 0,
        "tle_line1": "1 37415U 99025EGH 25342.55653587  .00000727  00000+0  90162-3 0  9991",
        "tle_line2": "2 37415  98.9817  90.7824 0285076 192.9583 166.4120 13.52085555622659"
      },
      "geometry": {
        "type": "Point",
        "coordinates": [
          101.84515220849372,
          -40.08743907294953
        ]
      }
    },
    {
      "type": "Feature",
      "properties": {
        "norad_id": 37417,
        "name": "FENGYUN 1C DEB",
        "group": "fengyun-1c-debris",
        "lat": 16.490784977476064,
        "lon": -23.49995757075732,
        "alt_km": 892.1917891893163,
        "timestamp": "2025-12-12T07:43:20.803232+00:00",
        "meta_object_name": "FENGYUN 1C DEB",
        "meta_object_id": "1999-025EGK",
        "meta_epoch": "2025-12-07T06:30:00.629568",
        "meta_mean_motion": 14.07380066,
        "meta_eccentricity": 0.00782242,
        "meta_inclination": 98.7964,
        "meta_ra_of_asc_node": 334.2107,
        "meta_arg_of_pericenter": 276.2736,
        "meta_mean_anomaly": 82.9527,
        "meta_ephemeris_type": 0,
        "meta_classification_type": "U",
        "meta_norad_cat_id": 37417,
        "meta_element_set_no": 999,
        "meta_rev_at_epoch": 68273,
        "meta_bstar": 0.00064539005,
        "meta_mean_motion_dot": 1.072e-05,
        "meta_mean_motion_ddot": 0,
        "tle_line1": "1 37417U 99025EGK 25341.27084062  .00001072  00000+0  64539-3 0  9990",
        "tle_line2": "2 37417  98.7964 334.2107 0078224 276.2736  82.9527 14.07380066682737"
      },
      "geometry": {
        "type": "Point",
        "coordinates": [
          -23.49995757075732,
          16.490784977476064
        ]
      }
    },
    {
      "type": "Feature",
      "properties": {
        "norad_id": 37418,
        "name": "FENGYUN 1C DEB",
        "group": "fengyun-1c-debris",
        "lat": 25.998834680367818,
        "lon": 62.864447599957785,
        "alt_km": 2545.0280391683546,
        "timestamp": "2025-12-12T07:43:20.803243+00:00",
        "meta_object_name": "FENGYUN 1C DEB",
        "meta_object_id": "1999-025EGL",
        "meta_epoch": "2025-12-06T16:12:36.074592",
        "meta_mean_motion": 11.95112147,
        "meta_eccentricity": 0.10777154,
        "meta_inclination": 98.6124,
        "meta_ra_of_asc_node": 234.8635,
        "meta_arg_of_pericenter": 331.8071,
        "meta_mean_anomaly": 22.8442,
        "meta_ephemeris_type": 0,
        "meta_classification_type": "U",
        "meta_norad_cat_id": 37418,
        "meta_element_set_no": 999,
        "meta_rev_at_epoch": 49412,
        "meta_bstar": 0.0048233577,
        "meta_mean_motion_dot": 1.984e-05,
        "meta_mean_motion_ddot": 0,
        "tle_line1": "1 37418U 99025EGL 25340.67541753  .00001984  00000+0  48234-2 0  9994",
        "tle_line2": "2 37418  98.6124 234.8635 1077715 331.8071  22.8442 11.95112147494121"
      },
      "geometry": {
        "type": "Point",
        "coordinates": [
          62.864447599957785,
          25.998834680367818
        ]
      }
    },
    {
      "type": "Feature",
      "properties": {
        "norad_id": 37420,
        "name": "FENGYUN 1C DEB",
        "group": "fengyun-1c-debris",
        "lat": -79.87324648658159,
        "lon": 95.46045140925506,
        "alt_km": 851.6714287961086,
        "timestamp": "2025-12-12T07:43:20.803253+00:00",
        "meta_object_name": "FENGYUN 1C DEB",
        "meta_object_id": "1999-025EGN",
        "meta_epoch": "2025-12-08T04:40:09.470784",
        "meta_mean_motion": 13.9973792,
        "meta_eccentricity": 0.00707955,
        "meta_inclination": 98.8619,
        "meta_ra_of_asc_node": 332.3305,
        "meta_arg_of_pericenter": 288.8881,
        "meta_mean_anomaly": 70.4618,
        "meta_ephemeris_type": 0,
        "meta_classification_type": "U",
        "meta_norad_cat_id": 37420,
        "meta_element_set_no": 999,
        "meta_rev_at_epoch": 59701,
        "meta_bstar": 0.00086941135,
        "meta_mean_motion_dot": 1.257e-05,
        "meta_mean_motion_ddot": 0,
        "tle_line1": "1 37420U 99025EGN 25342.19455406  .00001257  00000+0  86941-3 0  9996",
        "tle_line2": "2 37420  98.8619 332.3305 0070795 288.8881  70.4618 13.99737920597017"
      },
      "geometry": {
        "type": "Point",
        "coordinates": [
          95.46045140925506,
          -79.87324648658159
        ]
      }
    },
    {
      "type": "Feature",
      "properties": {
        "norad_id": 37421,
        "name": "FENGYUN 1C DEB",
        "group": "fengyun-1c-debris",
        "lat": -30.82792104131628,
        "lon": -53.52878363617101,
        "alt_km": 1245.4089276520936,
        "timestamp": "2025-12-12T07:43:20.803264+00:00",
        "meta_object_name": "FENGYUN 1C DEB",
        "meta_object_id": "1999-025EGP",
        "meta_epoch": "2025-12-08T14:18:59.473152",
        "meta_mean_motion": 13.40522268,
        "meta_eccentricity": 0.0408878,
        "meta_inclination": 98.8881,
        "meta_ra_of_asc_node": 297.8318,
        "meta_arg_of_pericenter": 95.9007,
        "meta_mean_anomaly": 268.8872,
        "meta_ephemeris_type": 0,
        "meta_classification_type": "U",
        "meta_norad_cat_id": 37421,
        "meta_element_set_no": 999,
        "meta_rev_at_epoch": 60890,
        "meta_bstar": 0.0009747,
        "meta_mean_motion_dot": 8.4e-06,
        "meta_mean_motion_ddot": 0,
        "tle_line1": "1 37421U 99025EGP 25342.59652168  .00000840  00000+0  97470-3 0  9991",
        "tle_line2": "2 37421  98.8881 297.8318 0408878  95.9007 268.8872 13.40522268608901"
      },
      "geometry": {
        "type": "Point",
        "coordinates": [
          -53.52878363617101,
          -30.82792104131628
        ]
      }
    },
    {
      "type": "Feature",
      "properties": {
        "norad_id": 37423,
        "name": "FENGYUN 1C DEB",
        "group": "fengyun-1c-debris",
        "lat": -76.3440406427016,
        "lon": 76.1108190477722,
        "alt_km": 892.8142611691965,
        "timestamp": "2025-12-12T07:43:20.803275+00:00",
        "meta_object_name": "FENGYUN 1C DEB",
        "meta_object_id": "1999-025EGR",
        "meta_epoch": "2025-12-09T10:09:17.471232",
        "meta_mean_motion": 14.07540897,
        "meta_eccentricity": 0.00494259,
        "meta_inclination": 98.7863,
        "meta_ra_of_asc_node": 33.7554,
        "meta_arg_of_pericenter": 168.7001,
        "meta_mean_anomaly": 191.529,
        "meta_ephemeris_type": 0,
        "meta_classification_type": "U",
        "meta_norad_cat_id": 37423,
        "meta_element_set_no": 999,
        "meta_rev_at_epoch": 63563,
        "meta_bstar": 0.0013631012,
        "meta_mean_motion_dot": 2.282e-05,
        "meta_mean_motion_ddot": 0,
        "tle_line1": "1 37423U 99025EGR 25343.42311888  .00002282  00000+0  13631-2 0  9995",
        "tle_line2": "2 37423  98.7863  33.7554 0049425 168.7001 191.5290 14.07540897635631"
      },
      "geometry": {
        "type": "Point",
        "coordinates": [
          76.1108190477722,
          -76.3440406427016
        ]
      }
    },
    {
      "type": "Feature",
      "properties": {
        "norad_id": 37424,
        "name": "FENGYUN 1C DEB",
        "group": "fengyun-1c-debris",
        "lat": 43.35290165312657,
        "lon": -58.230621484322846,
        "alt_km": 959.3702039837353,
        "timestamp": "2025-12-12T07:43:20.803285+00:00",
        "meta_object_name": "FENGYUN 1C DEB",
        "meta_object_id": "1999-025EGS",
        "meta_epoch": "2025-12-10T14:24:58.325184",
        "meta_mean_motion": 14.17832081,
        "meta_eccentricity": 0.0215746,
        "meta_inclination": 97.2028,
        "meta_ra_of_asc_node": 113.5139,
        "meta_arg_of_pericenter": 288.8478,
        "meta_mean_anomaly": 68.9416,
        "meta_ephemeris_type": 0,
        "meta_classification_type": "U",
        "meta_norad_cat_id": 37424,
        "meta_element_set_no": 999,
        "meta_rev_at_epoch": 68543,
        "meta_bstar": 0.0014046,
        "meta_mean_motion_dot": 3.573e-05,
        "meta_mean_motion_ddot": 0,
        "tle_line1": "1 37424U 99025EGS 25344.60067506  .00003573  00000+0  14046-2 0  9997",
        "tle_line2": "2 37424  97.2028 113.5139 0215746 288.8478  68.9416 14.17832081685438"
      },
      "geometry": {
        "type": "Point",
        "coordinates": [
          -58.230621484322846,
          43.35290165312657
        ]
      }
    }
  ]
}